[{"OBJECT_NAME":"STARLINK-32160","OBJECT_ID":"2024-131G","EPOCH":"2026-03-09T08:33:02.040768","MEAN_MOTION":15.30196385,"ECCENTRICITY":0.00013205,"INCLINATION":53.1607,"RA_OF_ASC_NODE":54.2509,"ARG_OF_PERICENTER":84.745,"MEAN_ANOMALY":275.3702,"EPHEMERIS_TYPE":0,"CLASSIFICATION_TYPE":"U","NORAD_CAT_ID":60261,"ELEMENT_SET_NO":999,"REV_AT_EPOCH":9171,"BSTAR":-9.5980647e-5,"MEAN_MOTION_DOT":-3.2e-5,"MEAN_MOTION_DDOT":0},{"OBJECT_NAME":"ELECTRON KICK STAGE R\/B","OBJECT_ID":"2022-147B","EPOCH":"2026-03-09T22:28:20.187264","MEAN_MOTION":15.28920172,"ECCENTRICITY":0.00095089,"INCLINATION":97.642,"RA_OF_ASC_NODE":85.1135,"ARG_OF_PERICENTER":110.4683,"MEAN_ANOMALY":249.7578,"EPHEMERIS_TYPE":0,"CLASSIFICATION_TYPE":"U","NORAD_CAT_ID":54228,"ELEMENT_SET_NO":999,"REV_AT_EPOCH":18390,"BSTAR":0.00083201931,"MEAN_MOTION_DOT":0.00023374,"MEAN_MOTION_DDOT":0}]
